ALOS-2                  
1 39766U 14029A   26085.55925350  .00001870  00000+0  25745-3 0  9993
2 39766  97.9185 183.9107 0001898 104.8768 255.2654 14.79437804639364
YAOGAN-29               
1 41038U 15069A   26085.52746551  .00000538  00000+0  72902-4 0  9992
2 41038  98.0124 114.0006 0000707  10.6510 349.4718 14.83014414558375
ASTRO-H (HITOMI)        
1 41337U 16012A   26085.48968516  .00002929  00000+0  16959-3 0  9990
2 41337  30.9987 248.1244 0009607 140.6627 219.4710 15.10106763554771
HXMT (HUIYAN)           
1 42758U 17034A   26085.56124116  .00005041  00000+0  25417-3 0  9999
2 42758  43.0144 282.8595 0032196 338.9624  20.9899 15.17673721485104
SAOCOM 1A               
1 43641U 18076A   26085.50313245  .00000262  00000+0  39507-4 0  9991
2 43641  97.8907 273.4382 0001496  85.9815 274.1570 14.82158326403851
H-2A R/B                
1 43682U 18084L   26085.54290737  .00019154  00000+0  44617-3 0  9996
2 43682  98.8711 306.5404 0023967 326.7333  33.2402 15.42046506408374
SAOCOM 1B               
1 46265U 20059A   26085.53436503  .00000332  00000+0  48304-4 0  9999
2 46265  97.8906 272.5667 0001463  88.6494 271.4886 14.82152715301244
CSS (TIANHE)            
1 48274U 21035A   26085.47667690  .00022078  00000+0  25348-3 0  9995
2 48274  41.4668 105.9518 0004375  27.8564 332.2509 15.61516360280239
CZ-2C R/B               
1 52794U 22058K   26084.77221419  .00037524  00000+0  52496-3 0  9996
2 52794  50.1868 235.4871 0041526 269.6026  90.0186 15.55377493212633
CZ-2C R/B               
1 54039U 22132E   26085.46979240  .00046034  00000+0  49499-3 0  9997
2 54039  97.2963  89.3160 0018219  36.9565 323.2945 15.63410774192997
GSLV R/B                
1 54149U 22138AN  26085.23353480  .00002455  00000+0  21043-3 0  9996
2 54149  87.3864 160.8245 0024097  92.1088 268.2903 14.96880005186407
